{
  "type": "FeatureCollection",
  "features": [
    {
      "type": "Feature",
      "properties": {
        "norad_id": 40118,
        "name": "GAOFEN-2",
        "group": "resource",
        "lat": -20.567360265354196,
        "lon": -126.86940020984568,
        "alt_km": 635.3264300257124,
        "timestamp": "2025-12-22T23:36:20.356818+00:00",
        "meta_object_name": "GAOFEN-2",
        "meta_object_id": "2014-049A",
        "meta_epoch": "2025-12-22T14:35:36.265632",
        "meta_mean_motion": 14.80626552,
        "meta_eccentricity": 0.00087969,
        "meta_inclination": 98.0373,
        "meta_ra_of_asc_node": 55.7937,
        "meta_arg_of_pericenter": 85.6163,
        "meta_mean_anomaly": 274.6054,
        "meta_ephemeris_type": 0,
        "meta_classification_type": "U",
        "meta_norad_cat_id": 40118,
        "meta_element_set_no": 999,
        "meta_rev_at_epoch": 61310,
        "meta_bstar": 0.00017121784,
        "meta_mean_motion_dot": 1.262e-05,
        "meta_mean_motion_ddot": 0,
        "tle_line1": "1 40118U 14049A   25356.60805863  .00001262  00000+0  17122-3 0  9995",
        "tle_line2": "2 40118  98.0373  55.7937 0008796  85.6163 274.6054 14.80626552613109"
      },
      "geometry": {
        "type": "Point",
        "coordinates": [
          -126.86940020984568,
          -20.567360265354196
        ]
      }
    },
    {
      "type": "Feature",
      "properties": {
        "norad_id": 40143,
        "name": "YAOGAN-21",
        "group": "resource",
        "lat": -48.85504934670611,
        "lon": 48.13978751420394,
        "alt_km": 498.0908268574867,
        "timestamp": "2025-12-22T23:36:20.356828+00:00",
        "meta_object_name": "YAOGAN-21",
        "meta_object_id": "2014-053A",
        "meta_epoch": "2025-12-22T14:21:55.372320",
        "meta_mean_motion": 15.23773819,
        "meta_eccentricity": 0.00088144,
        "meta_inclination": 97.1739,
        "meta_ra_of_asc_node": 39.4831,
        "meta_arg_of_pericenter": 9.3165,
        "meta_mean_anomaly": 350.8234,
        "meta_ephemeris_type": 0,
        "meta_classification_type": "U",
        "meta_norad_cat_id": 40143,
        "meta_element_set_no": 999,
        "meta_rev_at_epoch": 62804,
        "meta_bstar": 0.00036131201,
        "meta_mean_motion_dot": 8.637e-05,
        "meta_mean_motion_ddot": 0,
        "tle_line1": "1 40143U 14053A   25356.59855755  .00008637  00000+0  36131-3 0  9995",
        "tle_line2": "2 40143  97.1739  39.4831 0008814   9.3165 350.8234 15.23773819628044"
      },
      "geometry": {
        "type": "Point",
        "coordinates": [
          48.13978751420394,
          -48.85504934670611
        ]
      }
    },
    {
      "type": "Feature",
      "properties": {
        "norad_id": 40275,
        "name": "YAOGAN-22",
        "group": "resource",
        "lat": 39.83387610917764,
        "lon": 131.43623199158944,
        "alt_km": 1203.1712030247145,
        "timestamp": "2025-12-22T23:36:20.356839+00:00",
        "meta_object_name": "YAOGAN-22",
        "meta_object_id": "2014-063A",
        "meta_epoch": "2025-12-22T08:47:50.561088",
        "meta_mean_motion": 13.15522995,
        "meta_eccentricity": 0.00060542,
        "meta_inclination": 100.7428,
        "meta_ra_of_asc_node": 139.9222,
        "meta_arg_of_pericenter": 225.1787,
        "meta_mean_anomaly": 134.8832,
        "meta_ephemeris_type": 0,
        "meta_classification_type": "U",
        "meta_norad_cat_id": 40275,
        "meta_element_set_no": 999,
        "meta_rev_at_epoch": 53656,
        "meta_bstar": 9.8374726e-05,
        "meta_mean_motion_dot": -1e-07,
        "meta_mean_motion_ddot": 0,
        "tle_line1": "1 40275U 14063A   25356.36655742 -.00000010  00000+0  98375-4 0  9998",
        "tle_line2": "2 40275 100.7428 139.9222 0006054 225.1787 134.8832 13.15522995536563"
      },
      "geometry": {
        "type": "Point",
        "coordinates": [
          131.43623199158944,
          39.83387610917764
        ]
      }
    },
    {
      "type": "Feature",
      "properties": {
        "norad_id": 40298,
        "name": "ASNARO",
        "group": "resource",
        "lat": -26.697177900376108,
        "lon": -111.0490731268108,
        "alt_km": 514.0720723183676,
        "timestamp": "2025-12-22T23:36:20.356849+00:00",
        "meta_object_name": "ASNARO",
        "meta_object_id": "2014-070A",
        "meta_epoch": "2025-12-22T13:13:02.099136",
        "meta_mean_motion": 15.19691235,
        "meta_eccentricity": 0.00057546,
        "meta_inclination": 97.3648,
        "meta_ra_of_asc_node": 72.258,
        "meta_arg_of_pericenter": 95.5391,
        "meta_mean_anomaly": 264.65,
        "meta_ephemeris_type": 0,
        "meta_classification_type": "U",
        "meta_norad_cat_id": 40298,
        "meta_element_set_no": 999,
        "meta_rev_at_epoch": 61718,
        "meta_bstar": 0.0007667683,
        "meta_mean_motion_dot": 0.00016331,
        "meta_mean_motion_ddot": 0,
        "tle_line1": "1 40298U 14070A   25356.55071874  .00016331  00000+0  76677-3 0  9992",
        "tle_line2": "2 40298  97.3648  72.2580 0005754  95.5391 264.6500 15.19691235617187"
      },
      "geometry": {
        "type": "Point",
        "coordinates": [
          -111.0490731268108,
          -26.697177900376108
        ]
      }
    },
    {
      "type": "Feature",
      "properties": {
        "norad_id": 40310,
        "name": "YAOGAN-24",
        "group": "resource",
        "lat": 20.700141802994068,
        "lon": 125.03829493669168,
        "alt_km": 640.6111868078033,
        "timestamp": "2025-12-22T23:36:20.356859+00:00",
        "meta_object_name": "YAOGAN-24",
        "meta_object_id": "2014-072A",
        "meta_epoch": "2025-12-22T15:22:38.005824",
        "meta_mean_motion": 14.76194771,
        "meta_eccentricity": 0.00151402,
        "meta_inclination": 98.1229,
        "meta_ra_of_asc_node": 127.7874,
        "meta_arg_of_pericenter": 108.316,
        "meta_mean_anomaly": 251.9698,
        "meta_ephemeris_type": 0,
        "meta_classification_type": "U",
        "meta_norad_cat_id": 40310,
        "meta_element_set_no": 999,
        "meta_rev_at_epoch": 59767,
        "meta_bstar": 8.7618021e-05,
        "meta_mean_motion_dot": 5.54e-06,
        "meta_mean_motion_ddot": 0,
        "tle_line1": "1 40310U 14072A   25356.64071766  .00000554  00000+0  87618-4 0  9997",
        "tle_line2": "2 40310  98.1229 127.7874 0015140 108.3160 251.9698 14.76194771597678"
      },
      "geometry": {
        "type": "Point",
        "coordinates": [
          125.03829493669168,
          20.700141802994068
        ]
      }
    },
    {
      "type": "Feature",
      "properties": {
        "norad_id": 40336,
        "name": "CBERS 4",
        "group": "resource",
        "lat": 62.93570966021302,
        "lon": 37.98683508378139,
        "alt_km": 766.0980449858016,
        "timestamp": "2025-12-22T23:36:20.356869+00:00",
        "meta_object_name": "CBERS 4",
        "meta_object_id": "2014-079A",
        "meta_epoch": "2025-12-22T14:56:37.462848",
        "meta_mean_motion": 14.35522373,
        "meta_eccentricity": 0.00018536,
        "meta_inclination": 98.3296,
        "meta_ra_of_asc_node": 54.3012,
        "meta_arg_of_pericenter": 100.7543,
        "meta_mean_anomaly": 259.3852,
        "meta_ephemeris_type": 0,
        "meta_classification_type": "U",
        "meta_norad_cat_id": 40336,
        "meta_element_set_no": 999,
        "meta_rev_at_epoch": 57862,
        "meta_bstar": 0.000169129,
        "meta_mean_motion_dot": 4.45e-06,
        "meta_mean_motion_ddot": 0,
        "tle_line1": "1 40336U 14079A   25356.62265582  .00000445  00000+0  16913-3 0  9999",
        "tle_line2": "2 40336  98.3296  54.3012 0001853 100.7543 259.3852 14.35522373578624"
      },
      "geometry": {
        "type": "Point",
        "coordinates": [
          37.98683508378139,
          62.93570966021302
        ]
      }
    },
    {
      "type": "Feature",
      "properties": {
        "norad_id": 40362,
        "name": "YAOGAN-26",
        "group": "resource",
        "lat": -64.37692847527384,
        "lon": 162.3102748861682,
        "alt_km": 455.7025982277146,
        "timestamp": "2025-12-22T23:36:20.356879+00:00",
        "meta_object_name": "YAOGAN-26",
        "meta_object_id": "2014-088A",
        "meta_epoch": "2025-12-22T14:44:38.861088",
        "meta_mean_motion": 15.39622871,
        "meta_eccentricity": 0.00048773,
        "meta_inclination": 97.0634,
        "meta_ra_of_asc_node": 356.937,
        "meta_arg_of_pericenter": 358.8604,
        "meta_mean_anomaly": 1.2631,
        "meta_ephemeris_type": 0,
        "meta_classification_type": "U",
        "meta_norad_cat_id": 40362,
        "meta_element_set_no": 999,
        "meta_rev_at_epoch": 61046,
        "meta_bstar": 0.00042449946,
        "meta_mean_motion_dot": 0.00016671,
        "meta_mean_motion_ddot": 0,
        "tle_line1": "1 40362U 14088A   25356.61433867  .00016671  00000+0  42450-3 0  9993",
        "tle_line2": "2 40362  97.0634 356.9370 0004877 358.8604   1.2631 15.39622871610463"
      },
      "geometry": {
        "type": "Point",
        "coordinates": [
          162.3102748861682,
          -64.37692847527384
        ]
      }
    }
  ]
}